{"type": "FeatureCollection", "features": [ {"type": "Feature", "properties": {"norad_id": 35480, "name": "IRIDIUM 33 DEB", "group": "iridium-33-debris", "lat": -84.60173996985807, "lon": -117.05314411545012, "alt_km": 744.7967470202175, "timestamp": "2025-12-22T18:58:53.818380+00:00", "meta": {"OBJECT_NAME": "IRIDIUM 33 DEB", "OBJECT_ID": "1997-051QA", "EPOCH": "2025-12-15T08:30:57.118464", "MEAN_MOTION": 14.49774703, "ECCENTRICITY": 0.00160032, "INCLINATION": 86.3571, "RA_OF_ASC_NODE": 23.7786, "ARG_OF_PERICENTER": 97.0457, "MEAN_ANOMALY": 263.2568, "EPHEMERIS_TYPE": 0, "CLASSIFICATION_TYPE": "U", "NORAD_CAT_ID": 35480, "ELEMENT_SET_NO": 999, "REV_AT_EPOCH": 87069, "BSTAR": 0.00045738518, "MEAN_MOTION_DOT": 1.785e-05, "MEAN_MOTION_DDOT": 0}, "tle": {"line1": "1 35480U 97051QA  25349.35482776  .00001785  00000+0  45739-3 0  9998", "line2": "2 35480  86.3571  23.7786 0016003  97.0457 263.2568 14.49774703870695"}}, "geometry": {"type": "Point", "coordinates": [-117.05314411545012, -84.60173996985807]}}, {"type": "Feature", "properties": {"norad_id": 35484, "name": "IRIDIUM 33 DEB", "group": "iridium-33-debris", "lat": 46.7302229270716, "lon": -8.081128920552331, "alt_km": 553.5381256186729, "timestamp": "2025-12-22T18:58:53.818390+00:00", "meta": {"OBJECT_NAME": "IRIDIUM 33 DEB", "OBJECT_ID": "1997-051QE", "EPOCH": "2025-12-20T05:53:50.544096", "MEAN_MOTION": 14.99070362, "ECCENTRICITY": 0.0024356, "INCLINATION": 86.3597, "RA_OF_ASC_NODE": 349.2325, "ARG_OF_PERICENTER": 101.4609, "MEAN_ANOMALY": 258.9359, "EPHEMERIS_TYPE": 0, "CLASSIFICATION_TYPE": "U", "NORAD_CAT_ID": 35484, "ELEMENT_SET_NO": 999, "REV_AT_EPOCH": 62128, "BSTAR": 0.0017572, "MEAN_MOTION_DOT": 0.00021521, "MEAN_MOTION_DDOT": 0}, "tle": {"line1": "1 35484U 97051QE  25354.24572389  .00021521  00000+0  17572-2 0  9999", "line2": "2 35484  86.3597 349.2325 0024356 101.4609 258.9359 14.99070362621284"}}, "geometry": {"type": "Point", "coordinates": [-8.081128920552331, 46.7302229270716]}}, {"type": "Feature", "properties": {"norad_id": 35488, "name": "IRIDIUM 33 DEB", "group": "iridium-33-debris", "lat": -53.020221502474485, "lon": -68.65396546353956, "alt_km": 616.400369672383, "timestamp": "2025-12-22T18:58:53.818401+00:00", "meta": {"OBJECT_NAME": "IRIDIUM 33 DEB", "OBJECT_ID": "1997-051QJ", "EPOCH": "2025-12-18T06:44:16.731744", "MEAN_MOTION": 14.83196659, "ECCENTRICITY": 0.00291507, "INCLINATION": 86.3243, "RA_OF_ASC_NODE": 298.3231, "ARG_OF_PERICENTER": 24.8223, "MEAN_ANOMALY": 335.4395, "EPHEMERIS_TYPE": 0, "CLASSIFICATION_TYPE": "U", "NORAD_CAT_ID": 35488, "ELEMENT_SET_NO": 999, "REV_AT_EPOCH": 88348, "BSTAR": 0.0014098178, "MEAN_MOTION_DOT": 0.00011627, "MEAN_MOTION_DDOT": 0}, "tle": {"line1": "1 35488U 97051QJ  25352.28074921  .00011627  00000+0  14098-2 0  9990", "line2": "2 35488  86.3243 298.3231 0029150  24.8223 335.4395 14.83196659883487"}}, "geometry": {"type": "Point", "coordinates": [-68.65396546353956, -53.020221502474485]}}, {"type": "Feature", "properties": {"norad_id": 35616, "name": "IRIDIUM 33 DEB", "group": "iridium-33-debris", "lat": 60.879917871194124, "lon": -12.251993780700952, "alt_km": 614.2152396009724, "timestamp": "2025-12-22T18:58:53.818411+00:00", "meta": {"OBJECT_NAME": "IRIDIUM 33 DEB", "OBJECT_ID": "1997-051QN", "EPOCH": "2025-12-21T16:46:45.287328", "MEAN_MOTION": 14.82015021, "ECCENTRICITY": 0.00114093, "INCLINATION": 86.3545, "RA_OF_ASC_NODE": 341.6744, "ARG_OF_PERICENTER": 134.0095, "MEAN_ANOMALY": 226.2069, "EPHEMERIS_TYPE": 0, "CLASSIFICATION_TYPE": "U", "NORAD_CAT_ID": 35616, "ELEMENT_SET_NO": 999, "REV_AT_EPOCH": 87707, "BSTAR": 0.0013754653, "MEAN_MOTION_DOT": 0.00010957, "MEAN_MOTION_DDOT": 0}, "tle": {"line1": "1 35616U 97051QN  25355.69913527  .00010957  00000+0  13755-2 0  9999", "line2": "2 35616  86.3545 341.6744 0011409 134.0095 226.2069 14.82015021877070"}}, "geometry": {"type": "Point", "coordinates": [-12.251993780700952, 60.879917871194124]}}, {"type": "Feature", "properties": {"norad_id": 35618, "name": "IRIDIUM 33 DEB", "group": "iridium-33-debris", "lat": -16.917181512126835, "lon": 170.22567359195423, "alt_km": 740.6506049951522, "timestamp": "2025-12-22T18:58:53.818421+00:00", "meta": {"OBJECT_NAME": "IRIDIUM 33 DEB", "OBJECT_ID": "1997-051QQ", "EPOCH": "2025-12-21T17:16:24.492288", "MEAN_MOTION": 14.52331103, "ECCENTRICITY": 0.00284149, "INCLINATION": 86.341, "RA_OF_ASC_NODE": 349.5786, "ARG_OF_PERICENTER": 351.4344, "MEAN_ANOMALY": 8.6373, "EPHEMERIS_TYPE": 0, "CLASSIFICATION_TYPE": "U", "NORAD_CAT_ID": 35618, "ELEMENT_SET_NO": 999, "REV_AT_EPOCH": 65524, "BSTAR": 0.00039049847, "MEAN_MOTION_DOT": 1.617e-05, "MEAN_MOTION_DDOT": 0}, "tle": {"line1": "1 35618U 97051QQ  25355.71972792  .00001617  00000+0  39050-3 0  9993", "line2": "2 35618  86.3410 349.5786 0028414 351.4344   8.6373 14.52331103655244"}}, "geometry": {"type": "Point", "coordinates": [170.22567359195423, -16.917181512126835]}}, {"type": "Feature", "properties": {"norad_id": 35620, "name": "IRIDIUM 33 DEB", "group": "iridium-33-debris", "lat": 30.37232633194993, "lon": -144.6651040368121, "alt_km": 858.4433517159687, "timestamp": "2025-12-22T18:58:53.818432+00:00", "meta": {"OBJECT_NAME": "IRIDIUM 33 DEB", "OBJECT_ID": "1997-051QS", "EPOCH": "2025-12-18T07:58:30.597312", "MEAN_MOTION": 14.38231155, "ECCENTRICITY": 0.01396071, "INCLINATION": 86.3909, "RA_OF_ASC_NODE": 215.0948, "ARG_OF_PERICENTER": 240.37, "MEAN_ANOMALY": 118.3533, "EPHEMERIS_TYPE": 0, "CLASSIFICATION_TYPE": "U", "NORAD_CAT_ID": 35620, "ELEMENT_SET_NO": 999, "REV_AT_EPOCH": 60046, "BSTAR": 0.0042608437, "MEAN_MOTION_DOT": 0.00014532, "MEAN_MOTION_DDOT": 0}, "tle": {"line1": "1 35620U 97051QS  25352.33229858  .00014532  00000+0  42608-2 0  9991", "line2": "2 35620  86.3909 215.0948 0139607 240.3700 118.3533 14.38231155600467"}}, "geometry": {"type": "Point", "coordinates": [-144.6651040368121, 30.37232633194993]}}, {"type": "Feature", "properties": {"norad_id": 35622, "name": "IRIDIUM 33 DEB", "group": "iridium-33-debris", "lat": 17.187535341658013, "lon": -100.1751572146914, "alt_km": 549.7885792163906, "timestamp": "2025-12-22T18:58:53.818442+00:00", "meta": {"OBJECT_NAME": "IRIDIUM 33 DEB", "OBJECT_ID": "1997-051QU", "EPOCH": "2025-12-21T17:30:45.499392", "MEAN_MOTION": 15.05595388, "ECCENTRICITY": 0.00038789, "INCLINATION": 86.2019, "RA_OF_ASC_NODE": 259.171, "ARG_OF_PERICENTER": 296.3658, "MEAN_ANOMALY": 92.7099, "EPHEMERIS_TYPE": 0, "CLASSIFICATION_TYPE": "U", "NORAD_CAT_ID": 35622, "ELEMENT_SET_NO": 999, "REV_AT_EPOCH": 87495, "BSTAR": 0.0033233516, "MEAN_MOTION_DOT": 0.00048189, "MEAN_MOTION_DDOT": 0}, "tle": {"line1": "1 35622U 97051QU  25355.72969328  .00048189  00000+0  33234-2 0  9992", "line2": "2 35622  86.2019 259.1710 0003878 296.3658  92.7099 15.05595388874954"}}, "geometry": {"type": "Point", "coordinates": [-100.1751572146914, 17.187535341658013]}}, {"type": "Feature", "properties": {"norad_id": 35628, "name": "IRIDIUM 33 DEB", "group": "iridium-33-debris", "lat": -71.50103570465072, "lon": -6.387721476309926, "alt_km": 669.3126936750277, "timestamp": "2025-12-22T18:58:53.818452+00:00", "meta": {"OBJECT_NAME": "IRIDIUM 33 DEB", "OBJECT_ID": "1997-051RA", "EPOCH": "2025-12-20T06:45:55.793664", "MEAN_MOTION": 14.67680924, "ECCENTRICITY": 0.00096368, "INCLINATION": 86.3562, "RA_OF_ASC_NODE": 5.7112, "ARG_OF_PERICENTER": 314.2717, "MEAN_ANOMALY": 45.7705, "EPHEMERIS_TYPE": 0, "CLASSIFICATION_TYPE": "U", "NORAD_CAT_ID": 35628, "ELEMENT_SET_NO": 999, "REV_AT_EPOCH": 86557, "BSTAR": 0.00085133469, "MEAN_MOTION_DOT": 4.868e-05, "MEAN_MOTION_DDOT": 0}, "tle": {"line1": "1 35628U 97051RA  25354.28189576  .00004868  00000+0  85133-3 0  9999", "line2": "2 35628  86.3562   5.7112 0009636 314.2717  45.7705 14.67680924865577"}}, "geometry": {"type": "Point", "coordinates": [-6.387721476309926, -71.50103570465072]}}, {"type": "Feature", "properties": {"norad_id": 35631, "name": "IRIDIUM 33 DEB", "group": "iridium-33-debris", "lat": 9.74635712406502, "lon": -163.9781931722603, "alt_km": 734.2719320790611, "timestamp": "2025-12-22T18:58:53.818463+00:00", "meta": {"OBJECT_NAME": "IRIDIUM 33 DEB", "OBJECT_ID": "1997-051RD", "EPOCH": "2025-12-21T13:02:16.005120", "MEAN_MOTION": 14.47332773, "ECCENTRICITY": 0.00192, "INCLINATION": 86.3662, "RA_OF_ASC_NODE": 17.1844, "ARG_OF_PERICENTER": 91.7659, "MEAN_ANOMALY": 61.4804, "EPHEMERIS_TYPE": 0, "CLASSIFICATION_TYPE": "U", "NORAD_CAT_ID": 35631, "ELEMENT_SET_NO": 999, "REV_AT_EPOCH": 87324, "BSTAR": 0.00027951, "MEAN_MOTION_DOT": 1.046e-05, "MEAN_MOTION_DDOT": 0}, "tle": {"line1": "1 35631U 97051RD  25355.54324080  .00001046  00000+0  27951-3 0  9993", "line2": "2 35631  86.3662  17.1844 0019200  91.7659  61.4804 14.47332773873243"}}, "geometry": {"type": "Point", "coordinates": [-163.9781931722603, 9.74635712406502]}}, {"type": "Feature", "properties": {"norad_id": 35680, "name": "IRIDIUM 33 DEB", "group": "iridium-33-debris", "lat": -86.08373687890848, "lon": -67.69212584251373, "alt_km": 729.9242273317777, "timestamp": "2025-12-22T18:58:53.818473+00:00", "meta": {"OBJECT_NAME": "IRIDIUM 33 DEB", "OBJECT_ID": "1997-051RJ", "EPOCH": "2025-12-21T07:58:47.283744", "MEAN_MOTION": 14.2104558, "ECCENTRICITY": 0.0150556, "INCLINATION": 86.1025, "RA_OF_ASC_NODE": 17.7185, "ARG_OF_PERICENTER": 250.9856, "MEAN_ANOMALY": 122.3959, "EPHEMERIS_TYPE": 0, "CLASSIFICATION_TYPE": "U", "NORAD_CAT_ID": 35680, "ELEMENT_SET_NO": 999, "REV_AT_EPOCH": 60823, "BSTAR": 0.0026505, "MEAN_MOTION_DOT": 6.465e-05, "MEAN_MOTION_DDOT": 0}, "tle": {"line1": "1 35680U 97051RJ  25355.33249171  .00006465  00000+0  26505-2 0  9994", "line2": "2 35680  86.1025  17.7185 0150556 250.9856 122.3959 14.21045580608232"}}, "geometry": {"type": "Point", "coordinates": [-67.69212584251373, -86.08373687890848]}}]}